[
    {
        "OBJECT_NAME": "GSAT0225 (GALILEO 29)",
        "OBJECT_ID": "2024-079A",
        "EPOCH": "2026-07-22T07:17:48.012288",
        "MEAN_MOTION": 1.70474061,
        "ECCENTRICITY": 3.069e-05,
        "INCLINATION": 55.1403,
        "RA_OF_ASC_NODE": 100.0982,
        "ARG_OF_PERICENTER": 338.5943,
        "MEAN_ANOMALY": 199.0835,
        "EPHEMERIS_TYPE": 0,
        "CLASSIFICATION_TYPE": "U",
        "NORAD_CAT_ID": 59598,
        "ELEMENT_SET_NO": 999,
        "REV_AT_EPOCH": 1391,
        "BSTAR": 0,
        "MEAN_MOTION_DOT": -4.9e-07,
        "MEAN_MOTION_DDOT": 0
    },
    {
        "OBJECT_NAME": "GSAT0227 (GALILEO 30)",
        "OBJECT_ID": "2024-079C",
        "EPOCH": "2026-07-18T02:12:23.834592",
        "MEAN_MOTION": 1.70473877,
        "ECCENTRICITY": 0.00029504,
        "INCLINATION": 55.1327,
        "RA_OF_ASC_NODE": 100.2145,
        "ARG_OF_PERICENTER": 69.2435,
        "MEAN_ANOMALY": 290.827,
        "EPHEMERIS_TYPE": 0,
        "CLASSIFICATION_TYPE": "U",
        "NORAD_CAT_ID": 59600,
        "ELEMENT_SET_NO": 999,
        "REV_AT_EPOCH": 1389,
        "BSTAR": 0,
        "MEAN_MOTION_DOT": -3.1e-07,
        "MEAN_MOTION_DDOT": 0
    },
    {
        "OBJECT_NAME": "GSAT0232 (GALILEO 32)",
        "OBJECT_ID": "2024-167A",
        "EPOCH": "2026-07-21T08:48:43.552800",
        "MEAN_MOTION": 1.70474219,
        "ECCENTRICITY": 0.00063797,
        "INCLINATION": 55.1779,
        "RA_OF_ASC_NODE": 220.3751,
        "ARG_OF_PERICENTER": 233.5892,
        "MEAN_ANOMALY": 192.1922,
        "EPHEMERIS_TYPE": 0,
        "CLASSIFICATION_TYPE": "U",
        "NORAD_CAT_ID": 61182,
        "ELEMENT_SET_NO": 999,
        "REV_AT_EPOCH": 1146,
        "BSTAR": 0,
        "MEAN_MOTION_DOT": 6.5e-07,
        "MEAN_MOTION_DDOT": 0
    },
    {
        "OBJECT_NAME": "GSAT0226 (GALILEO 31)",
        "OBJECT_ID": "2024-167B",
        "EPOCH": "2026-07-21T23:51:26.549856",
        "MEAN_MOTION": 1.70474215,
        "ECCENTRICITY": 0.00031803,
        "INCLINATION": 55.1766,
        "RA_OF_ASC_NODE": 220.3651,
        "ARG_OF_PERICENTER": 239.553,
        "MEAN_ANOMALY": 302.2968,
        "EPHEMERIS_TYPE": 0,
        "CLASSIFICATION_TYPE": "U",
        "NORAD_CAT_ID": 61183,
        "ELEMENT_SET_NO": 999,
        "REV_AT_EPOCH": 1144,
        "BSTAR": 0,
        "MEAN_MOTION_DOT": 6.9e-07,
        "MEAN_MOTION_DDOT": 0
    },
    {
        "OBJECT_NAME": "GSAT0233 (GALILEO 33)",
        "OBJECT_ID": "2025-302A",
        "EPOCH": "2026-07-21T20:08:24.676800",
        "MEAN_MOTION": 1.7047412,
        "ECCENTRICITY": 0.00011835,
        "INCLINATION": 54.3554,
        "RA_OF_ASC_NODE": 101.1433,
        "ARG_OF_PERICENTER": 153.0567,
        "MEAN_ANOMALY": 30.2541,
        "EPHEMERIS_TYPE": 0,
        "CLASSIFICATION_TYPE": "U",
        "NORAD_CAT_ID": 67160,
        "ELEMENT_SET_NO": 999,
        "REV_AT_EPOCH": 371,
        "BSTAR": 0,
        "MEAN_MOTION_DOT": -4.8e-07,
        "MEAN_MOTION_DDOT": 0
    },
    {
        "OBJECT_NAME": "GSAT0234 (GALILEO 34)",
        "OBJECT_ID": "2025-302C",
        "EPOCH": "2026-07-22T03:02:25.577088",
        "MEAN_MOTION": 1.70474069,
        "ECCENTRICITY": 0.00015898,
        "INCLINATION": 54.3576,
        "RA_OF_ASC_NODE": 101.134,
        "ARG_OF_PERICENTER": 326.2968,
        "MEAN_ANOMALY": 213.5665,
        "EPHEMERIS_TYPE": 0,
        "CLASSIFICATION_TYPE": "U",
        "NORAD_CAT_ID": 67162,
        "ELEMENT_SET_NO": 999,
        "REV_AT_EPOCH": 377,
        "BSTAR": 0,
        "MEAN_MOTION_DOT": -4.8e-07,
        "MEAN_MOTION_DDOT": 0
    }
]
